#aP2023  5 20 21 59 41.00000000    1681 U+u   IGS14 FIT ESA*
## 2262  597581.00000000   60.00000000 60084     79181.0000
+    1   K01  0  0  0  0  0  0  0  0  0  0  0  0  0  0  0  0
+          0  0  0  0  0  0  0  0  0  0  0  0  0  0  0  0  0
+          0  0  0  0  0  0  0  0  0  0  0  0  0  0  0  0  0
+          0  0  0  0  0  0  0  0  0  0  0  0  0  0  0  0  0
+          0  0  0  0  0  0  0  0  0  0  0  0  0  0  0  0  0
++         0  0  0  0  0  0  0  0  0  0  0  0  0  0  0  0  0
++         0  0  0  0  0  0  0  0  0  0  0  0  0  0  0  0  0
++         0  0  0  0  0  0  0  0  0  0  0  0  0  0  0  0  0
++         0  0  0  0  0  0  0  0  0  0  0  0  0  0  0  0  0
++         0  0  0  0  0  0  0  0  0  0  0  0  0  0  0  0  0
%c L SENTINEL-6A
%c cc cc ccc ccc cccc cccc cccc cccc ccccc ccccc ccccc ccccc
*  2023  5 21 23 11 41.000000000
PK01   3381.770099   3857.597309  -5764.721165      0.000000   0   0
VK01     -0.217602      5.843008      3.780133      0.000000
*  2023  5 21 23 12 41.000000000
PK01   3365.000298   4202.091640  -5529.030136      0.000000   0   0
VK01     -0.341553      5.637346      4.074199      0.000000
*  2023  5 21 23 13 41.000000000
PK01   3340.766733   4533.750394  -5276.070574      0.000000   0   0
VK01     -0.466354      5.415265      4.355601      0.000000
*  2023  5 21 23 14 41.000000000
PK01   3309.025695   4851.608794  -5006.629050      0.000000   0   0
VK01     -0.591760      5.177452      4.623454      0.000000
*  2023  5 21 23 15 41.000000000
PK01   3269.748484   5154.744660  -4721.543919      0.000000   0   0
VK01     -0.717517      4.924640      4.876917      0.000000
*  2023  5 21 23 16 41.000000000
PK01   3222.921918   5442.281189  -4421.702785      0.000000   0   0
VK01     -0.843361      4.657608      5.115192      0.000000
*  2023  5 21 23 17 41.000000000
PK01   3168.548832   5713.389608  -4108.039787      0.000000   0   0
VK01     -0.969022      4.377177      5.337525      0.000000
*  2023  5 21 23 18 41.000000000
PK01   3106.648532   5967.291681  -3781.532741      0.000000   0   0
VK01     -1.094221      4.084210      5.543214      0.000000
*  2023  5 21 23 19 41.000000000
PK01   3037.257235   6203.262067  -3443.200123      0.000000   0   0
VK01     -1.218674      3.779607      5.731606      0.000000
*  2023  5 21 23 20 41.000000000
PK01   2960.428458   6420.630514  -3094.097915      0.000000   0   0
VK01     -1.342088      3.464304      5.902105      0.000000
*  2023  5 21 23 21 41.000000000
PK01   2876.233374   6618.783892  -2735.316319      0.000000   0   0
VK01     -1.464167      3.139269      6.054167      0.000000
*  2023  5 21 23 22 41.000000000
PK01   2784.761123   6797.168040  -2367.976341      0.000000   0   0
VK01     -1.584610      2.805498      6.187308      0.000000
*  2023  5 21 23 23 41.000000000
PK01   2686.119077   6955.289435  -1993.226262      0.000000   0   0
VK01     -1.703109      2.464016      6.301105      0.000000
*  2023  5 21 23 24 41.000000000
PK01   2580.433048   7092.716656  -1612.238009      0.000000   0   0
VK01     -1.819357      2.115869      6.395192      0.000000
*  2023  5 21 23 25 41.000000000
PK01   2467.847449   7209.081642  -1226.203432      0.000000   0   0
VK01     -1.933043      1.762121      6.469271      0.000000
*  2023  5 21 23 26 41.000000000
PK01   2348.525398   7304.080740   -836.330514      0.000000   0   0
VK01     -2.043854      1.403854      6.523103      0.000000
*  2023  5 21 23 27 41.000000000
PK01   2222.648771   7377.475545   -443.839524      0.000000   0   0
VK01     -2.151477      1.042161      6.556516      0.000000
*  2023  5 21 23 28 41.000000000
PK01   2090.418194   7429.093512    -49.959122      0.000000   0   0
VK01     -2.255600      0.678143      6.569404      0.000000
*  2023  5 21 23 29 41.000000000
PK01   1952.052981   7458.828363    344.077562      0.000000   0   0
VK01     -2.355913      0.312908      6.561724      0.000000
*  2023  5 21 23 30 41.000000000
PK01   1807.791009   7466.640270    737.036863      0.000000   0   0
VK01     -2.452108     -0.052437      6.533501      0.000000
*  2023  5 21 23 31 41.000000000
PK01   1657.888533   7452.555821   1127.688525      0.000000   0   0
VK01     -2.543879     -0.416787      6.484823      0.000000
*  2023  5 21 23 32 41.000000000
PK01   1502.619950   7416.667770   1514.809622      0.000000   0   0
VK01     -2.630928     -0.779041      6.415846      0.000000
*  2023  5 21 23 33 41.000000000
PK01   1342.277483   7359.134572   1897.188461      0.000000   0   0
VK01     -2.712960     -1.138111      6.326790      0.000000
*  2023  5 21 23 34 41.000000000
PK01   1177.170818   7280.179702   2273.628450      0.000000   0   0
VK01     -2.789688     -1.492919      6.217937      0.000000
*  2023  5 21 23 35 41.000000000
PK01   1007.626666   7180.090768   2642.951898      0.000000   0   0
VK01     -2.860831     -1.842405      6.089635      0.000000
*  2023  5 21 23 36 41.000000000
PK01    833.988263   7059.218410   3004.003759      0.000000   0   0
VK01     -2.926118     -2.185528      5.942291      0.000000
*  2023  5 21 23 37 41.000000000
PK01    656.614819   6917.975005   3355.655295      0.000000   0   0
VK01     -2.985289     -2.521272      5.776374      0.000000
*  2023  5 21 23 38 41.000000000
PK01    475.880890   6756.833159   3696.807635      0.000000   0   0
VK01     -3.038094     -2.848647      5.592410      0.000000
*  2023  5 21 23 39 41.000000000
PK01    292.175714   6576.324034   4026.395224      0.000000   0   0
VK01     -3.084292     -3.166691      5.390984      0.000000
*  2023  5 21 23 40 41.000000000
PK01    105.902465   6377.035492   4343.389172      0.000000   0   0
VK01     -3.123659     -3.474475      5.172733      0.000000
*  2023  5 21 23 41 41.000000000
PK01    -82.522537   6159.610055   4646.800480      0.000000   0   0
VK01     -3.155983     -3.771108      4.938349      0.000000
*  2023  5 21 23 42 41.000000000
PK01   -272.670681   5924.742675   4935.683111      0.000000   0   0
VK01     -3.181066     -4.055734      4.688571      0.000000
*  2023  5 21 23 43 41.000000000
PK01   -464.101955   5673.178358   5209.136890      0.000000   0   0
VK01     -3.198725     -4.327541      4.424189      0.000000
*  2023  5 21 23 44 41.000000000
PK01   -656.365881   5405.709662   5466.310232      0.000000   0   0
VK01     -3.208795     -4.585755      4.146032      0.000000
*  2023  5 21 23 45 41.000000000
PK01   -849.002498   5123.174089   5706.402718      0.000000   0   0
VK01     -3.211125     -4.829652      3.854976      0.000000
*  2023  5 21 23 46 41.000000000
PK01  -1041.543396   4826.451365   5928.667510      0.000000   0   0
VK01     -3.205583     -5.058551      3.551931      0.000000
*  2023  5 21 23 47 41.000000000
PK01  -1233.512794   4516.460599   6132.413608      0.000000   0   0
VK01     -3.192057     -5.271819      3.237847      0.000000
*  2023  5 21 23 48 41.000000000
PK01  -1424.428661   4194.157341   6317.007922      0.000000   0   0
VK01     -3.170452     -5.468875      2.913704      0.000000
*  2023  5 21 23 49 41.000000000
PK01  -1613.803874   3860.530548   6481.877160      0.000000   0   0
VK01     -3.140691     -5.649186      2.580515      0.000000
*  2023  5 21 23 50 41.000000000
PK01  -1801.147412   3516.599474   6626.509531      0.000000   0   0
VK01     -3.102722     -5.812275      2.239317      0.000000
*  2023  5 21 23 51 41.000000000
PK01  -1985.965591   3163.410490   6750.456257      0.000000   0   0
VK01     -3.056509     -5.957717      1.891172      0.000000
*  2023  5 21 23 52 41.000000000
PK01  -2167.763330   2802.033849   6853.332894      0.000000   0   0
VK01     -3.002040     -6.085140      1.537163      0.000000
*  2023  5 21 23 53 41.000000000
PK01  -2346.045443   2433.560397   6934.820459      0.000000   0   0
VK01     -2.939325     -6.194229      1.178388      0.000000
*  2023  5 21 23 54 41.000000000
PK01  -2520.317973   2059.098247   6994.666362      0.000000   0   0
VK01     -2.868394     -6.284725      0.815960      0.000000
*  2023  5 21 23 55 41.000000000
PK01  -2690.089537   1679.769424   7032.685148      0.000000   0   0
VK01     -2.789303     -6.356422      0.451005      0.000000
*  2023  5 21 23 56 41.000000000
PK01  -2854.872706   1296.706481   7048.759033      0.000000   0   0
VK01     -2.702129     -6.409176      0.084653      0.000000
*  2023  5 21 23 57 41.000000000
PK01  -3014.185395    911.049103   7042.838248      0.000000   0   0
VK01     -2.606973     -6.442893     -0.281961      0.000000
*  2023  5 21 23 58 41.000000000
PK01  -3167.552274    523.940707   7014.941182      0.000000   0   0
VK01     -2.503958     -6.457542     -0.647701      0.000000
*  2023  5 21 23 59 41.000000000
PK01  -3314.506192    136.525042   6965.154320      0.000000   0   0
VK01     -2.393234     -6.453144     -1.011433      0.000000
*  2023  5 22  0  0 41.000000000
PK01  -3454.589602   -250.057194   6893.631987      0.000000   0   0
VK01     -2.274972     -6.429779     -1.372029      0.000000
*  2023  5 22  0  1 41.000000000
PK01  -3587.355999   -634.671710   6800.595892      0.000000   0   0
VK01     -2.149368     -6.387580     -1.728372      0.000000
*  2023  5 22  0  2 41.000000000
PK01  -3712.371350  -1016.193947   6686.334484      0.000000   0   0
VK01     -2.016643     -6.326739     -2.079357      0.000000
*  2023  5 22  0  3 41.000000000
PK01  -3829.215534  -1393.512371   6551.202116      0.000000   0   0
VK01     -1.877039     -6.247499     -2.423891      0.000000
*  2023  5 22  0  4 41.000000000
PK01  -3937.483780  -1765.531722   6395.618025      0.000000   0   0
VK01     -1.730825     -6.150157     -2.760904      0.000000
*  2023  5 22  0  5 41.000000000
PK01  -4036.788089  -2131.176232   6220.065109      0.000000   0   0
VK01     -1.578291     -6.035067     -3.089345      0.000000
*  2023  5 22  0  6 41.000000000
PK01  -4126.758647  -2489.392769   6025.088499      0.000000   0   0
VK01     -1.419754     -5.902630     -3.408192      0.000000
EOF